ADRAS-J                 
1 58992U 24034A   24093.87764529  .00004558  00000+0  43552-3 0  9995
2 58992  98.2062  63.5576 0042867 297.8496  61.8382 14.93125073  6623
